UNKNOWN                 
1 81311U          26093.66841491  .00001330  00000+0  27565-3 0  9997
2 81311  98.7126 161.1306 0131731 142.1330   9.2597 14.56729833655889
UNKNOWN                 
1 81317U          26092.31680559  .00000111  00000+0  29112-3 0  9996
2 81317  67.1362 293.1367 0216945 317.3528 225.2187 13.38060190603427
UNKNOWN                 
1 81323U          26094.34382540  .00021936  00000+0  26615-2 0  9999
2 81323  65.7490  72.6591 0333511 254.6747 101.7274 14.51174552129370
UNKNOWN                 
1 81329U          26085.44629429  .00000769  00000+0  29440-3 0  9997
2 81329  65.8185 252.8345 0836355 343.0357  14.4185 13.22777555591790
UNKNOWN                 
1 81343U          26094.55860673  .00008442  00000+0  58308-3 0  9994
2 81343  85.8709 139.0058 0008602 192.0705 168.0325 15.05594217471280
UNKNOWN                 
1 81359U          26094.10084691  .00000790  00000+0  80073-3 0  9992
2 81359  66.7972 143.0156 0121003 251.1104 107.6818 13.79025033620974
UNKNOWN                 
1 81366U          26093.59589659  .00001252  00000+0  46117-3 0  9991
2 81366  65.8818 167.2514 0714339  27.1324 336.5236 13.45429449 81006
UNKNOWN                 
1 81371U          26093.27416664  .00005496  00000+0  86549-3 0  9994
2 81371  98.8119 203.7252 0068712  17.8223 342.5368 14.71361206658232
UNKNOWN                 
1 81386U          26092.31792671  .00006519  00000+0  20792-2 0  9993
2 81386  71.0487 116.3732 0093765 269.9224  89.1166 14.37579494640129
UNKNOWN                 
1 81390U          26091.44098504 -.00000395  00000+0 -25854-2 0  9997
2 81390 103.1051 352.4570 0175687 314.0589  44.6114 12.35608531513647
UNKNOWN                 
1 81392U          26091.94356590  .00003225  00000+0  30058-2 0  9991
2 81392 100.4054  96.4099 0042343 111.3174 280.4946 13.82448122617406
UNKNOWN                 
1 81405U          26073.89719008  .00001447  00000+0  11126-2 0  9996
2 81405  99.4590 128.5260 0157520 337.4444  21.9841 13.89179281574593
